NORAD_CAT_ID,OBJECT_NAME,OBJECT_TYPE,EPOCH,MEAN_MOTION,ECCENTRICITY,INCLINATION,RA_OF_ASC_NODE,ARG_OF_PERICENTER,MEAN_ANOMALY,BSTAR,MEAN_MOTION_DOT,MEAN_MOTION_DDOT,TLE_LINE0,TLE_LINE1,TLE_LINE2,SEMIMAJOR_AXIS,PERIOD,APOGEE,PERIGEE,DECAYED
52553.0,STARLINK-3858,PAYLOAD,2023-11-13 08:20:37,15.10486935,0.0001668,53.2175,333.2101,114.8852,245.2314,0.00024457,3.782e-05,0.0,0 STARLINK-3858,1 52553U 22051W   23317.34765471  .00003782  00000-0  24457-3 0  9998,2 52553  53.2175 333.2101 0001668 114.8852 245.2314 15.10486935 83596,6912.851,95.333,535.869,533.563,0.0
52553.0,STARLINK-3858,PAYLOAD,2023-11-13 17:52:19,15.1048217,0.0001458,53.2174,331.4236,102.2198,257.8959,0.00026684,4.153e-05,0.0,0 STARLINK-3858,1 52553U 22051W   23317.74466553  .00004153  00000-0  26684-3 0  9998,2 52553  53.2174 331.4236 0001458 102.2198 257.8959 15.10482170 83653,6912.865,95.334,535.738,533.723,0.0
52553.0,STARLINK-3858,PAYLOAD,2023-11-14 09:45:08,15.10475491,0.0001543,53.2171,328.4437,83.3225,276.7943,2.8566e-05,1.83e-06,0.0,0 STARLINK-3858,1 52553U 22051W   23318.40634993  .00000183  00000-0  28566-4 0  9998,2 52553  53.2171 328.4437 0001543  83.3225 276.7943 15.10475491 83756,6912.886,95.334,535.818,533.684,0.0
52553.0,STARLINK-3858,PAYLOAD,2023-11-14 17:41:33,15.10472743,0.0001606,53.2177,326.9543,84.0697,276.0479,-2.5716e-05,-7.21e-06,0.0,0 STARLINK-3858,1 52553U 22051W   23318.73719284 -.00000721  00000-0 -25716-4 0  9995,2 52553  53.2177 326.9543 0001606  84.0697 276.0479 15.10472743 83736,6912.894,95.334,535.869,533.649,0.0
52553.0,STARLINK-3858,PAYLOAD,2023-11-15 07:59:05,15.10480471,0.0001528,53.2169,324.2742,85.3997,274.717,3.1541e-05,2.32e-06,0.0,0 STARLINK-3858,1 52553U 22051W   23319.33270303  .00000232  00000-0  31541-4 0  9994,2 52553  53.2169 324.2742 0001528  85.3997 274.7170 15.10480471 83829,6912.871,95.334,535.792,533.679,0.0
52553.0,STARLINK-3858,PAYLOAD,2023-11-15 17:30:47,15.10479064,0.000154,53.217,322.4875,86.7669,273.35,2.0918e-05,5.6e-07,0.0,0 STARLINK-3858,1 52553U 22051W   23319.72971317  .00000056  00000-0  20918-4 0  9990,2 52553  53.2170 322.4875 0001540  86.7669 273.3500 15.10479064 83955,6912.875,95.334,535.805,533.675,0.0
52553.0,STARLINK-3858,PAYLOAD,2023-11-16 09:23:36,15.10479151,0.000161,53.2172,319.509,84.5638,275.5538,5.3344e-05,5.95e-06,0.0,0 STARLINK-3858,1 52553U 22051W   23320.39139699  .00000595  00000-0  53344-4 0  9991,2 52553  53.2172 319.5090 0001610  84.5638 275.5538 15.10479151 83988,6912.875,95.334,535.853,533.627,0.0
52553.0,STARLINK-3858,PAYLOAD,2023-11-16 17:20:01,15.10472088,0.0001655,53.2185,318.0177,83.9312,276.187,1.2574e-05,-8.3e-07,0.0,0 STARLINK-3858,1 52553U 22051W   23320.72224260 -.00000083  00000-0  12574-4 0  9990,2 52553  53.2185 318.0177 0001655  83.9312 276.1870 15.10472088 84106,6912.896,95.334,535.905,533.617,0.0
52553.0,STARLINK-3858,PAYLOAD,2023-11-17 06:02:17,15.1047081,0.0001615,53.2183,315.6355,96.037,264.0807,0.00013,1.872e-05,0.0,0 STARLINK-3858,1 52553U 22051W   23321.25159065  .00001872  00000-0  13000-3 0  9999,2 52553  53.2183 315.6355 0001615  96.0370 264.0807 15.10470810 84118,6912.9,95.335,535.882,533.649,0.0
52553.0,STARLINK-3858,PAYLOAD,2023-11-17 17:09:15,15.10479914,0.0001774,53.2197,313.5531,77.4902,282.6289,8.5389e-05,1.129e-05,0.0,0 STARLINK-3858,1 52553U 22051W   23321.71476512  .00001129  00000-0  85389-4 0  9994,2 52553  53.2197 313.5531 0001774  77.4902 282.6289 15.10479914 84187,6912.872,95.334,535.964,533.511,0.0
52553.0,STARLINK-3858,PAYLOAD,2023-11-18 04:16:14,15.10480686,0.000166,53.2198,311.4684,84.5865,275.5317,0.00012587,1.804e-05,0.0,0 STARLINK-3858,1 52553U 22051W   23322.17794014  .00001804  00000-0  12587-3 0  9994,2 52553  53.2198 311.4684 0001660  84.5865 275.5317 15.10480686 84322,6912.87,95.334,535.883,533.587,0.0
52553.0,STARLINK-3858,PAYLOAD,2023-11-18 09:02:04,15.1048657,0.0001574,53.219,310.573,88.6268,271.4905,0.00014538,2.129e-05,0.0,0 STARLINK-3858,1 52553U 22051W   23322.37644019  .00002129  00000-0  14538-3 0  9994,2 52553  53.2190 310.5730 0001574  88.6268 271.4905 15.10486570 84283,6912.852,95.334,535.805,533.629,0.0
52553.0,STARLINK-3858,PAYLOAD,2023-11-18 16:58:29,15.10482353,0.0001529,53.2187,309.0838,92.542,267.5748,8.6154e-05,1.142e-05,0.0,0 STARLINK-3858,1 52553U 22051W   23322.70728364  .00001142  00000-0  86154-4 0  9995,2 52553  53.2187 309.0838 0001529  92.5420 267.5748 15.10482353 84337,6912.865,95.334,535.787,533.673,0.0
52553.0,STARLINK-3858,PAYLOAD,2023-11-19 04:05:28,15.10456514,0.0001411,53.2184,306.9995,100.2961,259.8191,0.00041341,6.592e-05,0.0,0 STARLINK-3858,1 52553U 22051W   23323.17047140  .00006592  00000-0  41341-3 0  9995,2 52553  53.2184 306.9995 0001411 100.2961 259.8191 15.10456514 84472,6912.944,95.335,535.784,533.833,0.0
52553.0,STARLINK-3858,PAYLOAD,2023-11-19 08:51:18,15.10481275,0.0001557,53.2187,306.1055,100.2184,259.8985,0.00011196,1.572e-05,0.0,0 STARLINK-3858,1 52553U 22051W   23323.36896504  .00001572  00000-0  11196-3 0  9990,2 52553  53.2187 306.1055 0001557 100.2184 259.8985 15.10481275 84509,6912.868,95.334,535.81,533.657,0.0
52553.0,STARLINK-3858,PAYLOAD,2023-11-20 08:40:32,15.10486296,0.0001458,53.2182,301.6396,97.8523,262.2636,6.9503e-05,8.65e-06,0.0,0 STARLINK-3858,1 52553U 22051W   23324.36148208  .00000865  00000-0  69503-4 0  9992,2 52553  53.2182 301.6396 0001458  97.8523 262.2636 15.10486296 84587,6912.853,95.334,535.726,533.71,0.0
52553.0,STARLINK-3858,PAYLOAD,2023-11-21 03:43:55,15.10475731,0.000145,53.2181,298.0657,102.3725,257.743,1.3135e-05,-7.4e-07,0.0,0 STARLINK-3858,1 52553U 22051W   23325.15550726 -.00000074  00000-0  13135-4 0  9995,2 52553  53.2181 298.0657 0001450 102.3725 257.7430 15.10475731 84777,6912.885,95.334,535.752,533.748,0.0
52553.0,STARLINK-3858,PAYLOAD,2023-11-21 05:19:12,15.1047836,0.0001422,53.2179,297.7695,90.9605,269.1551,5.0787e-05,5.53e-06,0.0,0 STARLINK-3858,1 52553U 22051W   23325.22167374  .00000553  00000-0  50787-4 0  9991,2 52553  53.2179 297.7695 0001422  90.9605 269.1551 15.10478360 84716,6912.877,95.334,535.725,533.759,0.0
52553.0,STARLINK-3858,PAYLOAD,2023-11-21 18:01:28,15.10471964,0.0001351,53.2173,295.3893,96.0866,264.028,4.8605e-05,5.17e-06,0.0,0 STARLINK-3858,1 52553U 22051W   23325.75102415  .00000517  00000-0  48605-4 0  9990,2 52553  53.2173 295.3893 0001351  96.0866 264.0280 15.10471964 84795,6912.897,95.334,535.696,533.828,0.0
52553.0,STARLINK-3858,PAYLOAD,2023-11-22 06:43:43,15.10487507,0.0001405,53.2183,293.008,84.982,275.1333,0.00012728,1.827e-05,0.0,0 STARLINK-3858,1 52553U 22051W   23326.28035961  .00001827  00000-0  12728-3 0  9991,2 52553  53.2183 293.0080 0001405  84.9820 275.1333 15.10487507 84944,6912.849,95.333,535.685,533.743,0.0
52553.0,STARLINK-3858,PAYLOAD,2023-11-23 03:22:23,15.10479139,0.0001619,53.2191,289.1344,79.9082,280.2093,8.3851e-05,1.104e-05,0.0,0 STARLINK-3858,1 52553U 22051W   23327.14055114  .00001104  00000-0  83851-4 0  9993,2 52553  53.2191 289.1344 0001619  79.9082 280.2093 15.10479139 85070,6912.875,95.334,535.859,533.621,0.0
52553.0,STARLINK-3858,PAYLOAD,2023-11-23 04:57:40,15.10488605,0.0001679,53.2199,288.8395,72.158,287.9596,-6.7841e-05,-1.422e-05,0.0,0 STARLINK-3858,1 52553U 22051W   23327.20671457 -.00001422  00000-0 -67841-4 0  9990,2 52553  53.2199 288.8395 0001679  72.1580 287.9596 15.10488605 85085,6912.846,95.333,535.872,533.55,0.0
52553.0,STARLINK-3858,PAYLOAD,2023-11-24 03:11:38,15.10468794,0.0001627,53.2183,284.669,59.0226,301.0926,-2.0033e-05,-6.26e-06,0.0,0 STARLINK-3858,1 52553U 22051W   23328.13308257 -.00000626  00000-0 -20033-4 0  9995,2 52553  53.2183 284.6690 0001627  59.0226 301.0926 15.10468794 85222,6912.906,95.335,535.896,533.647,0.0
52553.0,STARLINK-3858,PAYLOAD,2023-11-24 04:46:55,15.1047032,0.0001556,53.2186,284.3715,72.4797,287.6366,9.2279e-06,-1.39e-06,0.0,0 STARLINK-3858,1 52553U 22051W   23328.19924968 -.00000139  00000-0  92279-5 0  9994,2 52553  53.2186 284.3715 0001556  72.4797 287.6366 15.10470320 85161,6912.902,95.335,535.842,533.691,0.0
52553.0,STARLINK-3858,PAYLOAD,2023-11-25 03:00:51,15.10483962,0.0001346,53.2165,280.2038,115.2379,244.8754,8.0902e-05,1.055e-05,0.0,0 STARLINK-3858,1 52553U 22051W   23329.12559919  .00001055  00000-0  80902-4 0  9994,2 52553  53.2165 280.2038 0001346 115.2379 244.8754 15.10483962 85375,6912.86,95.334,535.655,533.795,0.0
52553.0,STARLINK-3858,PAYLOAD,2023-11-25 04:36:08,15.10489613,0.0001461,53.2172,279.9031,85.5869,274.5291,0.0002055,3.131e-05,0.0,0 STARLINK-3858,1 52553U 22051W   23329.19176486  .00003131  00000-0  20550-3 0  9994,2 52553  53.2172 279.9031 0001461  85.5869 274.5291 15.10489613 85311,6912.843,95.333,535.718,533.698,0.0
52553.0,STARLINK-3858,PAYLOAD,2023-11-25 20:28:58,15.10480079,0.0001661,53.2166,276.9281,66.419,293.6977,0.00049629,7.98e-05,0.0,0 STARLINK-3858,1 52553U 22051W   23329.85345413  .00007980  00000-0  49629-3 0  9999,2 52553  53.2166 276.9281 0001661  66.4190 293.6977 15.10480079 85416,6912.872,95.334,535.885,533.589,0.0
52553.0,STARLINK-3858,PAYLOAD,2023-11-26 02:50:05,15.10508717,0.0001523,53.2168,275.7327,82.6338,277.4828,0.00069317,0.00011276,0.0,0 STARLINK-3858,1 52553U 22051W   23330.11811465  .00011276  00000-0  69317-3 0  9994,2 52553  53.2168 275.7327 0001523  82.6338 277.4828 15.10508717 85524,6912.784,95.332,535.702,533.597,0.0
52553.0,STARLINK-3858,PAYLOAD,2023-11-27 02:39:20,15.10458668,0.0001934,53.2185,271.2596,122.167,237.951,-0.00033736,-5.902e-05,0.0,0 STARLINK-3858,1 52553U 22051W   23331.11065616 -.00005902  00000-0 -33736-3 0  9991,2 52553  53.2185 271.2596 0001934 122.1670 237.9510 15.10458668 85671,6912.937,95.335,536.139,533.465,0.0
52553.0,STARLINK-3858,PAYLOAD,2023-11-28 02:28:33,15.10501315,0.0001807,53.2174,266.7994,114.5951,245.5231,0.00026871,4.186e-05,0.0,0 STARLINK-3858,1 52553U 22051W   23332.10316376  .00004186  00000-0  26871-3 0  9996,2 52553  53.2174 266.7994 0001807 114.5951 245.5231 15.10501315 85826,6912.807,95.333,535.921,533.423,0.0
